{
  "norad_id": 60114,
  "name": "STARLINK-11198 [DTC]",
  "history": [
    {
      "epoch": "2026-03-28T19:33:31.838112",
      "apogee_km": 360.5377296633378,
      "perigee_km": 358.8419534038612,
      "latitude_deg": 52.43187579587152,
      "longitude_deg": -90.36462432006374,
      "semi_major_axis_km": 6737.8268415336,
      "eccentricity": 0.00012584,
      "inclination_deg": 53.1576,
      "raan_deg": 127.2405,
      "arg_perigee_deg": 93.0808,
      "mean_anomaly_deg": 267.0354,
      "mean_motion_rev_day": 15.69722898
    }
  ]
}